#dP2024  9 15  0  0  0.00000000      97 __u+U IGS20 FIT  IAC
## 2332      0.00000000   900.00000000 60568 0.0000000000000
+  119   C06C07C08C09C10C11C12C13C14C16C19C20C21C22C23C24C25
+        C26C27C28C29C30C32C33C34C35C36C37C38C39C40C41C42C43
+        C44C45E02E03E04E05E06E07E08E09E10E11E12E13E14E15E18
+        E19E21E24E25E26E27E29E30E31E33E34E36G01G02G03G04G05
+        G06G07G08G09G10G11G12G13G14G15G16G17G19G20G21G22G23
+        G24G25G26G27G28G29G30G31G32J02J03J04R01R02R03R04R05
+        R07R08R09R11R12R14R15R16R17R18R19R20R21R22R24R25R26
++         8  7  7  9  7  6  7  7  6  8  6  5  6  6  5  6  5
++         5  6  6  6  5  5  5  6  6  6  5  6  6  6  5  5  6
++         6  6  4  4  4  4  4  4  4  4  4  4  4  4  4  4  4
++         4  4  4  4  4  4  4  4  4  4  4  4  4  3  3  3  3
++         3  3  3  3  4  3  3  3  3  3  3  3  3  3  3  3  4
++         4  4  3  3  4  3  4  3  4 11 11 11  8  6  6  6  7
++         7  7  7  6  6  6  6  7  6  6  7  8  6  7  6  8  8
%c M  cc GPS ccc cccc cccc cccc cccc ccccc ccccc ccccc ccccc
%c cc cc ccc ccc cccc cccc cccc cccc ccccc ccccc ccccc ccccc
%f  1.2500000  1.025000000  0.00000000000  0.000000000000000
%f  0.0000000  0.000000000  0.00000000000  0.000000000000000
%i    0    0    0    0      0      0      0      0         0
%i    0    0    0    0      0      0      0      0         0
/* INFORMATION & ANALYSIS CENTER (IAC)            FINAL DATA
/* S/V CLOCKS ARE ALIGNED TO GNSS TIME                      
/* G:C1WC2W R:C1PC2P E:C1XC5X C:C2IC6I J:C1CC2S             
/* PCV:IGS20_2317 OL/AL:FES2004  NONE     YN ORB:CoN CLK:CoN
*  2024 09 15  6 30  0.00000000
PC06  -3279.060974  38678.028589  16907.484696    222.910987
PC07 -11497.328867  25999.023412 -31040.395129   -371.874031
PC08 -19533.988310  33248.672615  16716.829281   -543.705613
PC09   1004.200854  41521.583962   9520.112806   -332.972930
PC10  -3398.009216  27367.673182 -31511.866555   -178.541344
PC11  11555.037289 -10465.812991  23218.923389    763.169588
PC12  20495.180991   8719.912942  16847.898809   -264.628941
PC13 -11540.093830  33195.021457  23214.632143    433.984235
PC14  22367.703397 -11406.224123 -12121.948263   -199.399869
PC16  -6023.449941  36570.661701  20744.364799   -804.859604
PC19 -14254.470218  14793.711083  18909.089563   -936.282580
PC20 -26518.355316   7103.797769   5090.323202   -922.922832
PC21  23840.027485   5763.809708  13291.408244   -931.050487
PC22   6977.861005  14508.567375  22775.290120    123.481726
PC23   -447.960311 -24561.039861  13254.767466   -834.969223
PC24  18405.181776 -10112.565863 -18401.854002    828.576021
PC25  12289.951666 -24763.218398  -3900.926862    506.542361
PC26  13497.516057   9871.131952 -22355.085227   -348.988410
PC27 -20727.613007 -16236.533658  -9262.202730    369.079863
PC28 -13021.107288 -23924.547848   6095.528241    285.834370
PC29  -4477.069244  17799.653301 -21021.079738    335.633875
PC30 -18660.971133    525.148132 -20744.113066   -203.757933
PC32 -23830.066091  -5648.207497 -13386.657330   -734.449514
PC33  14232.995474 -14884.193946 -18833.559382   -969.186725
PC34  17831.459538  -2249.737133  21340.422349    521.464089
PC35  13504.387025  23529.614200  -6614.015080    260.671239
PC36 -12569.470151  24671.378516   3440.131496    183.329638
PC37 -13221.214968 -10280.972218  22335.717428   -898.211485
PC38 -23901.399754  33753.335032   7768.605849    179.459173
PC39  -7863.684192  33024.371145  25229.752474     -9.866335
PC40 -16252.784280  19255.591695 -33824.117939    -91.278697
PC41  -6003.077428 -14745.286503 -22876.895698   -909.809179
PC42  27025.624942  -6054.287575  -3263.809344   -477.368165
PC43   5433.085076 -17192.472115  21287.601366     85.787225
PC44  21369.412744  15519.689093   9033.933314    593.820005
PC45    -74.074330  24715.688343 -12931.760209   -131.900339
PE02   9510.106386  13911.752748 -24334.040704    159.409490
PE03  19587.083629  18900.351872  11606.538308   -140.491513
PE04 -27507.798207  -8115.446865   7332.126536    -33.395496
PE05    335.478381  18305.871110  23254.575618   4784.326071
PE06 -25152.664436   -397.151973  15578.240722    -25.948198
PE07  19484.686374  -6760.623200 -21230.948939   -142.139784
PE08  27491.760573   8757.803912  -6590.063550   -335.803841
PE09 -19513.245908   6563.976027  21268.230779   -590.341605
PE10 -15549.829003   5196.965878 -24648.399323   -656.647657
PE11 -12639.077822  16712.212722 -20918.221736   1662.469016
PE12 -15989.495752  -5684.825396 -24255.008620  -1210.782225
PE13  12783.584522 -16152.876972  21261.333606    -24.797113
PE14 -27497.052465   2115.235722 -16575.095685    227.560561
PE15  15864.177645   6446.136716  24148.806522   -127.216824
PE18  14821.738483  -8848.661926  17203.615610    549.165689
PE19 -17988.206991 -19413.020723 -13255.655963    624.185741
PE21  10210.252666 -21341.625751  17793.408685   -616.915608
PE24 -24690.036666  16303.490333   -426.268049   -988.317632
PE25 -10642.871183  21370.005978 -17487.602788      9.092256
PE26   2000.509346 -29023.069022   5500.612305   -268.793712
PE27  24603.003215 -16456.676353    559.335612   -452.866349
PE29   -666.103225 -18587.117889 -23033.825068    -30.324445
PE30  24341.554537  -1842.891156 -16753.487245   -718.406689
PE31 -24301.839401   1915.344299  16800.065187    -35.930196
PE33  -9339.872383 -25203.074423 -12413.736696     15.326263
PE34   9625.187164  24877.021382  12808.402677   -134.419877
PE36  -2309.606623  28885.812205  -6030.237414   -283.538147
PG01   3464.545341  16050.368225 -21193.317765    196.929089
PG02  14773.042212  -4018.743356  22166.706579   -357.754893
PG03  22779.301183 -12326.954671   5445.266377    538.187803
PG04  21071.142696  -2324.885655 -16078.043642    443.939154
PG05 -19237.751990   -510.589264 -18519.011079   -186.638876
PG06  -5114.011924 -25713.773446  -3815.315480     29.832627
PG07   7281.484943 -21064.625646 -13564.339423    -37.720895
PG08  25549.060988   5552.627898   5731.936047    352.952187
PG09  11948.837371 -11111.294136 -21059.660271    357.152625
PG10  -2409.611900  17920.329926  19544.635732   -125.774354
PG11 -12490.612648 -16815.799085 -16340.414079   -734.717239
PG12 -23689.815080   8445.404360   8184.030814   -538.154880
PG13 -22632.798459 -14148.533313   -360.031524    676.554272
PG14   6396.109866 -19466.146931  16822.680265    495.904884
PG15 -25851.153880  -2493.567501   5446.837835    204.454767
PG16  16798.341946   6136.688637 -20110.779701   -180.638490
PG17  -4397.846307 -17532.925934  19825.584390    626.365447
PG19 -13207.346408 -18476.057932  13960.836885    538.250359
PG20 -11841.028181  -9727.894540 -21619.703567    370.625221
PG21  16033.532409   3312.155959  21491.774599    101.724127
PG22  -1016.125019 -16702.905731  21099.786097    -61.983751
PG23 -14329.904324  19857.496175  10027.319069    320.482652
PG24 -15541.568026   1700.471737  21044.356529   -486.675101
PG25 -19666.075047  17506.485438  -2496.471514    499.618225
PG26   6877.715546  14844.846434 -21034.658323     78.565894
PG27  22894.446908  13197.510626  -4690.544416    -33.848812
PG28   4915.320007  26061.259324  -1444.633949   -411.668178
PG29 -15193.337124   7836.951417 -20403.886836   -577.759899
PG30    292.014119 -25995.407741  -4537.686917   -321.028633
PG31  11204.132053  20155.157992 -13064.765268   -224.683951
PG32   6953.464251  17366.606117  19147.971102   -597.014136
PJ02 -36097.865350  19403.170672  -5199.446409     -1.021174
PJ03 -20503.382026  26177.824226 -21282.020553     -3.061542
PJ04 -27874.630852  28422.302839  19660.127285     22.274907
PR01  25007.107640   2399.727422   4393.665250     97.836571
PR02  21862.812058  -4599.783914 -12338.948493    -24.664533
PR03   6304.567098 -10260.757723 -22455.053883    107.581296
PR04 -12116.847783  -9931.583517 -20100.380207    254.754238
PR05 -24094.645147  -4555.288985  -6969.105596    137.674730
PR07  -5556.645903  10376.556224  22656.707061     90.940838
PR08  12465.277721   9906.794899  19995.371057     -6.402844
PR09 -16109.175283  16116.051693  11572.981266    209.213989
PR11   -423.072403  17468.408887 -18578.436860     11.811546
PR12  12334.077110    455.722769 -22296.741109     44.863463
PR14  10718.051808 -22495.161961   5418.853391     26.917406
PR15   -839.173761 -16382.200651  19553.353482     75.865155
PR16 -12143.864661   -515.520370  22443.920973     29.140386
PR17  -1962.997318 -19812.451253  15989.395037    122.130413
PR18 -11037.001173 -22959.959769    846.256638    162.118769
PR19 -14179.842850 -16405.984196 -13443.097537   -291.420515
PR20  -9563.084078   4091.643654 -23279.966185   -119.088328
PR21   1344.102715  19352.568203 -16538.658828   -134.586828
PR22  11049.905385  22989.365981    450.442949     46.520996
PR24   9538.545775  -5282.820757  23079.654352    -72.084160
PR25   1232.279754  20111.421815 -15617.472276   -100.098200
PR26  10938.101045  10101.117896  20721.323383     27.628724
EOF
